COSMOS 2251 DEB         
1 35655U 93036ANW 17345.57798169  .00001543  00000-0  30034-3 0  9993
2 35655  74.0007  62.1820 0015180 279.7393  80.2060 14.63941380456828
